1 43013U 17073A   25341.21056769  .00000190  00000+0  11113-3 0  9999
2 43013  98.7591 277.5681 0002120  94.9588 265.1830 14.19523424417233
